OBJECT_NAME,OBJECT_ID,EPOCH,MEAN_MOTION,ECCENTRICITY,INCLINATION,RA_OF_ASC_NODE,ARG_OF_PERICENTER,MEAN_ANOMALY,EPHEMERIS_TYPE,CLASSIFICATION_TYPE,NORAD_CAT_ID,ELEMENT_SET_NO,REV_AT_EPOCH,BSTAR,MEAN_MOTION_DOT,MEAN_MOTION_DDOT
STARLINK-5363,2023-015BA,2026-07-06T22:55:30.235584,15.27563726,.0001695,43.0041,26.3221,267.7684,92.2974,0,U,55497,999,18883,-.35401434E-4,-.1236E-4,0
STARLINK-5365,2023-015BB,2026-07-07T22:42:38.229984,15.27577021,.0001464,43.0031,20.8582,261.3067,98.7619,0,U,55498,999,18898,.53254E-4,.1203E-4,0
STARLINK-5366,2023-015BC,2026-07-06T22:03:40.511232,15.27583479,.0001278,43.0040,26.0552,274.3230,85.7475,0,U,55499,999,18958,-.75682714E-4,-.2344E-4,0
STARLINK-5141,2023-015BD,2026-07-07T20:59:14.646912,15.27570198,.0001666,43.0043,21.1850,268.7309,91.3352,0,U,55500,999,18897,-.11129E-5,-.293E-5,0
STARLINK-5367,2023-015BE,2026-07-06T23:21:23.802624,15.27575018,.00012656,43.0023,26.4446,257.8277,102.2433,0,U,55501,999,18883,-.11334177E-4,-.574E-5,0
ELEKTRO-L 4,2023-016A,2026-07-07T17:54:04.038912,1.00272111,.000118,0.1010,133.3683,45.1610,181.4734,0,U,55506,999,1253,0,-.43E-6,0
AMAZONAS NEXUS,2023-017A,2026-07-07T01:28:51.094272,1.00270134,.00046761,0.0334,38.5553,43.0358,164.6663,0,U,55508,999,724,0,-.267E-5,0
STARLINK-5749,2023-020A,2026-07-08T00:37:22.697760,15.27569817,.0001415,43.0019,49.2731,270.7184,89.3506,0,U,55569,999,18834,.55526E-4,.1266E-4,0
STARLINK-5737,2023-020B,2026-07-07T22:43:34.074624,15.27573856,.0001476,43.0035,46.1375,259.7885,100.2800,0,U,55570,999,18730,.60084E-4,.1391E-4,0
STARLINK-5739,2023-020C,2026-07-08T00:07:46.157376,15.27575838,.0000898,43.0079,49.1239,294.0447,66.0310,0,U,55571,999,18727,-.11075E-3,-.3308E-4,0
STARLINK-5732,2023-020D,2026-07-08T00:04:03.894240,15.27572512,.0001342,43.0060,49.1079,276.0400,84.0299,0,U,55572,999,18727,.57507E-4,.132E-4,0
STARLINK-5738,2023-020E,2026-07-07T23:58:31.116000,15.27565967,.0001854,43.0067,49.0810,287.1447,72.9201,0,U,55573,999,18727,.48097E-4,.1061E-4,0
STARLINK-5747,2023-020F,2026-07-08T00:48:29.437920,15.27562982,.0000947,43.0034,49.3340,304.7453,55.3309,0,U,55574,999,18727,.25607E-4,.442E-5,0
STARLINK-5745,2023-020G,2026-07-08T01:51:11.758752,15.27563055,.0001378,43.0061,48.8034,267.9042,92.1651,0,U,55575,999,18728,.31377E-4,.601E-5,0
STARLINK-5751,2023-020H,2026-07-05T23:52:40.830528,15.27464730,.00013241,43.0066,31.2909,301.9333,58.1390,0,U,55576,999,18730,-.26047998E-3,-.7397E-4,0
STARLINK-5752,2023-020J,2026-07-07T23:00:13.091040,15.27562843,.0001213,43.0027,46.1390,259.2539,100.8176,0,U,55577,999,18730,.39877E-4,.835E-5,0
STARLINK-5754,2023-020L,2026-07-08T00:04:46.200000,15.27574335,.000134,43.0046,45.6970,270.4925,89.5773,0,U,55579,999,18731,.63836E-4,.1495E-4,0
STARLINK-5757,2023-020M,2026-07-05T22:33:13.224960,15.27564558,.00013238,43.0045,31.7364,266.6231,93.4470,0,U,55580,999,18729,-.47248522E-4,-.1561E-4,0
STARLINK-5753,2023-020N,2026-07-08T00:16:18.441120,15.27575370,.000128,43.0057,52.5783,269.5584,90.5121,0,U,55581,999,18723,.24718E-4,.418E-5,0
STARLINK-5741,2023-020P,2026-07-07T23:05:31.118208,15.27787902,.0002893,43.0058,34.9844,288.5962,71.4576,0,U,55582,999,18743,.10818E-2,.29818E-3,0
STARLINK-5742,2023-020Q,2026-07-07T23:31:27.705792,15.27571979,.0000594,43.0054,45.5264,304.1963,55.8832,0,U,55583,999,18731,-.1442E-4,-.659E-5,0
STARLINK-5736,2023-020R,2026-07-07T23:22:25.698720,15.27570513,.0001311,43.0033,46.3368,273.7308,86.3394,0,U,55584,999,18730,.32178E-4,.623E-5,0
STARLINK-5769,2023-020S,2026-07-07T22:06:47.570688,15.27588224,.0001556,43.0036,35.5427,318.6731,41.4003,0,U,55585,999,18742,.90531E-4,.223E-4,0
STARLINK-5767,2023-020T,2026-07-05T23:53:40.428384,15.27574370,.000144,43.0026,57.2862,284.9915,75.0777,0,U,55586,999,18700,-.38933864E-4,-.1333E-4,0
STARLINK-5727,2023-020U,2026-07-08T00:23:15.010080,15.27577331,.000139,43.0039,45.7179,262.8691,97.2003,0,U,55587,999,18731,.11744E-4,.61E-6,0
STARLINK-5728,2023-020V,2026-07-07T22:52:50.024064,15.27563253,.0001411,43.0027,46.1839,272.0040,88.0650,0,U,55588,999,18730,.37126E-4,.759E-5,0
STARLINK-5697,2023-020W,2026-07-08T00:10:18.668064,15.27581525,.0001569,43.0048,45.7243,271.0517,89.0155,0,U,55589,999,18731,.37142E-4,.76E-5,0
STARLINK-5762,2023-020X,2026-07-08T00:01:05.288160,15.27561074,.0001768,43.0052,45.6844,283.6193,76.4462,0,U,55590,999,18731,.6824E-4,.1615E-4,0
STARLINK-5760,2023-020Y,2026-07-05T23:42:34.556544,15.27569997,.00013617,43.0026,57.2326,262.7227,97.3470,0,U,55591,999,18700,.23208151E-4,.376E-5,0
STARLINK-5759,2023-020Z,2026-07-07T23:35:10.253184,15.27569512,.000228,43.0141,45.5371,263.3930,96.6662,0,U,55592,999,18731,.37288E-4,.763E-5,0
STARLINK-5703,2023-020AA,2026-07-07T17:13:00.203808,15.27567321,.0000949,43.0038,46.9927,272.0755,87.9987,0,U,55593,999,18727,-.15935E-4,-.7E-5,0
STARLINK-5750,2023-020AB,2026-07-07T23:40:42.684096,15.27582698,.0002021,43.0056,45.5762,284.5659,75.4968,0,U,55594,999,18731,-.87926E-5,-.504E-5,0
STARLINK-5729,2023-020AD,2026-07-07T23:55:31.168128,15.27575309,.0001528,43.0043,45.6529,278.8851,81.1828,0,U,55596,999,18731,.57396E-4,.1317E-4,0
STARLINK-5743,2023-020AE,2026-07-08T00:08:30.822720,15.27568364,.0001698,43.0037,34.4626,275.2220,84.8438,0,U,55597,999,18744,-.51577E-5,-.404E-5,0
STARLINK-5756,2023-020AF,2026-07-07T23:24:17.189280,15.27578130,.0001827,43.0022,35.0554,267.2790,92.7852,0,U,55598,999,18743,-.10279E-6,-.265E-5,0
STARLINK-5761,2023-020AG,2026-07-07T23:29:51.597024,15.27566430,.0000934,43.0004,35.0866,268.9972,91.0773,0,U,55599,999,18743,.11951E-3,.3027E-4,0
STARLINK-5755,2023-020AH,2026-07-07T21:20:32.286048,15.27572043,.0001401,43.0066,35.2906,276.6507,83.4185,0,U,55600,999,18742,.86776E-5,-.23E-6,0
STARLINK-5744,2023-020AJ,2026-07-07T23:24:17.481312,15.27560177,.0001213,43.0048,46.3394,275.4397,84.6317,0,U,55601,999,18730,.45025E-4,.976E-5,0
STARLINK-5764,2023-020AK,2026-07-07T23:35:25.261728,15.27566721,.0001504,43.0027,35.1141,261.3635,98.7046,0,U,55602,999,18743,-.83515E-5,-.492E-5,0
STARLINK-5735,2023-020AL,2026-07-06T23:16:48.347328,15.27567094,.00016577,43.0066,40.4379,278.1165,81.9498,0,U,55603,999,18728,-.23163631E-4,-.899E-5,0
STARLINK-5748,2023-020AM,2026-07-05T23:50:43.755936,15.27583812,.0001084,43.0045,31.2881,354.3886,5.6954,0,U,55604,999,18730,-.13695E-4,-.639E-5,0
STARLINK-5725,2023-020AN,2026-07-06T23:27:54.291744,15.27575474,.00010139,43.0057,40.4906,291.0591,69.0152,0,U,55605,999,18728,.1865033E-4,.251E-5,0
STARLINK-5700,2023-020AQ,2026-07-07T21:46:25.053888,15.27581880,.0002051,43.0050,35.4292,271.1303,88.9314,0,U,55607,999,18742,.3417E-4,.678E-5,0
STARLINK-5726,2023-020AR,2026-07-07T23:26:09.448800,15.27577569,.0001681,43.0031,35.0814,268.8223,91.2437,0,U,55608,999,18743,.55751E-4,.1272E-4,0
STARLINK-5719,2023-020AS,2026-07-07T23:15:03.488832,15.27561920,.0001908,43.0051,35.0322,264.4294,95.6340,0,U,55609,999,18743,-.64607E-4,-.2039E-4,0
STARLINK-5722,2023-020AT,2026-07-07T00:04:54.280992,15.27586229,.00007662,42.9991,40.6764,291.3510,68.7260,0,U,55610,999,18728,.13376568E-4,.106E-5,0
STARLINK-5730,2023-020AU,2026-07-07T23:46:29.610336,15.27577726,.0001291,43.0027,35.1748,260.0917,99.9789,0,U,55611,999,18743,.20624E-4,.305E-5,0
STARLINK-5734,2023-020AV,2026-07-07T23:52:03.108288,15.27583940,.0001358,43.0024,35.2176,259.3968,100.6730,0,U,55612,999,18743,.63001E-4,.1472E-4,0
STARLINK-5714,2023-020AX,2026-07-06T23:32:19.535424,15.27529448,.00018127,43.0096,25.7603,304.2967,55.7713,0,U,55614,999,18745,.18533864E-3,.4833E-4,0
STARLINK-5712,2023-020AY,2026-07-07T20:58:22.673856,15.27546635,.0001275,43.0048,35.1782,311.2408,48.8333,0,U,55615,999,18742,.19119E-4,.264E-5,0
STARLINK-5710,2023-020AZ,2026-07-06T23:14:56.434272,15.27603649,.00016108,43.0065,40.4219,264.8866,95.1801,0,U,55616,999,18728,-.30278751E-3,-.8591E-4,0
STARLINK-5721,2023-020BA,2026-07-06T23:05:41.724672,15.27577788,.00010562,43.0035,40.3731,253.1695,106.9041,0,U,55617,999,18728,-.62651533E-4,-.1985E-4,0
STARLINK-5717,2023-020BB,2026-07-07T21:18:42.075072,15.27560544,.0001695,43.0053,35.2800,262.8559,97.2100,0,U,55618,999,18742,.25713E-4,.445E-5,0
STARLINK-5720,2023-020BC,2026-07-06T23:26:02.525568,15.27578386,.00007745,43.0051,40.4749,271.5511,88.5252,0,U,55619,999,18727,-.14870715E-4,-.671E-5,0
STARLINK-5718,2023-020BD,2026-07-06T23:31:36.122016,15.27568238,.0001881,43.0065,40.5065,272.9701,87.0936,0,U,55620,999,18728,-.58193422E-4,-.1863E-4,0
STARLINK-5709,2023-020BE,2026-07-06T23:09:23.890176,15.27568931,.00013984,43.0061,40.3923,272.8792,87.1900,0,U,55621,999,18728,-.5332383E-5,-.409E-5,0
STARLINK-5702,2023-020BF,2026-07-06T23:37:09.086880,15.27568943,.00017808,43.0074,40.5346,271.1882,88.8766,0,U,55622,999,18728,-.4031886E-4,-.1371E-4,0
STARLINK-5698,2023-020BG,2026-07-06T00:08:29.809248,15.27572638,.0001711,43.0063,46.0911,268.9495,91.1161,0,U,55623,999,1055,-.70639E-5,-.457E-5,0
STARLINK-5484,2023-021A,2026-07-08T04:12:02.814048,14.98340462,.0003438,69.9979,260.7527,268.2439,91.8326,0,U,55628,999,18634,.49537E-4,.498E-5,0
STARLINK-5497,2023-021B,2026-07-06T15:26:58.276320,14.98325273,.00032596,69.9988,264.6400,268.2344,91.8442,0,U,55629,999,18611,-.10121768E-3,-.13E-4,0
STARLINK-5303,2023-021C,2026-07-06T15:14:57.408288,14.98331237,.00032705,69.9984,264.6086,270.9533,89.1251,0,U,55630,999,18611,.13676866E-3,.1539E-4,0
STARLINK-5558,2023-021D,2026-07-08T05:06:06.473088,14.98319986,.0002899,70.0017,260.4832,252.6717,107.4125,0,U,55631,999,18635,-.1254E-3,-.1588E-4,0
STARLINK-5546,2023-021E,2026-07-08T03:54:01.046304,14.98323965,.0003156,69.9981,260.7059,269.2430,90.8367,0,U,55632,999,18634,.81658E-4,.881E-5,0
STARLINK-5498,2023-021F,2026-07-08T03:48:00.912096,14.98318943,.000391,69.9978,260.6921,269.8325,90.2386,0,U,55633,999,18634,.435E-4,.426E-5,0
STARLINK-5500,2023-021G,2026-07-08T03:54:14.688000,14.98336649,.0003468,69.9994,260.7080,268.8103,91.2659,0,U,55634,999,18633,-.14452E-4,-.266E-5,0
